ONEWEB-0283             
1 49001U 21060AL  25005.43844908  .00000182  00000+0  44334-3 0  9996
2 49001  87.9103 333.9433 0001534  81.3262 278.8042 13.16596790170171
ONEWEB-0284             
1 49002U 21060AM  25005.43212174  .00000158  00000+0  38052-3 0  9994
2 49002  87.9096 333.9161 0001879  87.8817 272.2529 13.16596155170151
ONEWEB-0285             
1 49075U 21075A   25005.27038645 -.00000353  00000+0 -10167-2 0  9996
2 49075  87.8879  95.7831 0001813 106.3517 253.7811 13.12440983165962
ONEWEB-0286             
1 49076U 21075B   25005.47058528  .00000408  00000+0  10998-2 0  9992
2 49076  87.8877  95.7401 0001944  99.6789 260.4560 13.12441399165344
ONEWEB-0287             
1 49077U 21075C   25005.25839494  .00000115  00000+0  26175-3 0  9998
2 49077  87.9102 111.0411 0001877 105.5535 254.5804 13.17649988164108
ONEWEB-0288             
1 49078U 21075D   25005.30432726  .00000498  00000+0  13494-2 0  9995
2 49078  87.8874  95.7761 0001899 106.5645 253.5692 13.12450725165948
ONEWEB-0289             
1 49079U 21075E   25005.28709201  .00000160  00000+0  37898-3 0  9999
2 49079  87.9108 111.0654 0001628 106.2684 253.8626 13.17650501164682
ONEWEB-0290             
1 49080U 21075F   25005.27021162  .00000076  00000+0  16300-3 0  9994
2 49080  87.9105 111.0270 0001866 128.8965 231.2333 13.17650926164092
